2023-091J               
1 57174U 23091J   26154.90281644  .00004392  00000+0  24626-3 0  9991
2 57174  97.5056 208.1891 0013116 186.9957 173.1093 15.13830370161625
CUBEBEL 2 (EU11S)       
1 57175U 23091K   26154.89856615  .00013336  00000+0  47776-3 0  9995
2 57175  97.5053 217.9997 0010811 155.5463 204.6292 15.28818883162275
SITRO-AIS 5 (KATYS)     
1 57176U 23091L   26154.91827304  .00013980  00000+0  49557-3 0  9996
2 57176  97.5062 218.6942 0012504 144.6195 215.5877 15.29133363162315
ZORKIY-2M 1             
1 57177U 23091M   26154.92106752  .00007965  00000+0  36431-3 0  9998
2 57177  97.5092 213.9297 0014088 157.2295 202.9568 15.20719294161983
CUBESX-HSE 3 (RS42S)    
1 57178U 23091N   26154.90639200  .00014603  00000+0  49086-3 0  9993
2 57178  97.5094 220.3290 0012041 135.7768 224.4438 15.30860578162398
MONITOR-3 (RS58S)       
1 57180U 23091Q   26154.83637026  .00011528  00000+0  42930-3 0  9996
2 57180  97.5086 218.1868 0012851 142.2665 217.9478 15.27556971162257
MONITOR-4 (RS57S)       
1 57182U 23091S   26154.88172354  .00011834  00000+0  43932-3 0  9994
2 57182  97.5079 218.2031 0012796 142.4768 217.7366 15.27655842162260
MONITOR-2 (RS39S)       
1 57184U 23091U   26154.93877970  .00005158  00000+0  25092-3 0  9997
2 57184  97.5075 213.3083 0012056 152.1856 208.0026 15.18779671161943
SVYATOBOR 1 (RS60S)     
1 57187U 23091X   26154.88352580  .00009855  00000+0  38110-3 0  9992
2 57187  97.5090 218.6290 0010705 134.5692 225.6422 15.26375913162285
HORS 1                  
1 57188U 23091Y   26154.93551738  .00009922  00000+0  38256-3 0  9991
2 57188  97.5069 218.4454 0010194 133.8589 226.3494 15.26476571162291
VIZARD-METEO (RS38S)    
1 57189U 23091Z   26154.92132097  .00018804  00000+0  54471-3 0  9990
2 57189  97.5093 224.1448 0008752 116.8088 243.4051 15.35581284162655
SITRO-AIS 6 (CHIRKIN)   
1 57192U 23091AC  26154.93243048  .00011400  00000+0  44942-3 0  9991
2 57192  97.5070 217.8973 0012726 147.7418 212.4601 15.25667369162264
SITRO-AIS 8 (ANOKHIN)   
1 57193U 23091AD  26154.89292746  .00015730  00000+0  51404-3 0  9997
2 57193  97.5059 220.2039 0011694 140.7885 219.4205 15.31756572162413
SITRO-AIS 7 (FARTUSHNIY)
1 57194U 23091AE  26154.93289376  .00011218  00000+0  44643-3 0  9992
2 57194  97.5067 217.7295 0012551 148.6979 211.5009 15.25361754162256
AVION KALUGA 650        
1 57195U 23091AF  26154.93250898  .00006277  00000+0  29244-3 0  9999
2 57195  97.5092 214.5636 0011289 149.9870 210.2014 15.20202832162012
HORS 2                  
1 57196U 23091AG  26154.90260742  .00014782  00000+0  48702-3 0  9996
2 57196  97.5091 221.7543 0009530 127.1313 233.0801 15.31530324162496
A-SEANSAT-PG1           
1 57197U 23091AH  26154.92296916  .00020900  00000+0  58801-3 0  9991
2 57197  97.5082 224.2261 0008655 123.8539 236.3530 15.36475591162676
SITRO-AIS 10 (BURDAEV)  
1 57199U 23091AK  26154.91473941  .00021666  00000+0  57880-3 0  9993
2 57199  97.5082 225.1449 0008026 119.1175 241.0874 15.38081583162728
SITRO-AIS 9 (SHCHUKIN)  
1 57201U 23091AM  26154.87191882  .00022151  00000+0  60073-3 0  9991
2 57201  97.5081 224.8413 0008228 119.4346 240.7721 15.37609251162707
UTMN 2 (RS27S)          
1 57203U 23091AP  26154.93127796  .00014674  00000+0  48083-3 0  9991
2 57203  97.5090 221.9718 0009440 122.9547 237.2603 15.31709132162516
SITRO-AIS 12 (SMIRENNIY)
1 57204U 23091AQ  26154.93011474  .00021622  00000+0  58107-3 0  9996
2 57204  97.5094 225.3598 0007884 114.1931 246.0139 15.37899468162739
SITRO-AIS 11 (SHEFFER)  
1 57208U 23091AU  26154.88209679  .00021840  00000+0  57917-3 0  9990
2 57208  97.5092 225.5489 0007805 114.3372 245.8689 15.38309013162747
H2SAT (HEINRICH HERTZ)  
1 57213U 23093A   26154.92357868  .00000014  00000+0  00000+0 0  9994
2 57213   0.0448 125.0236 0000972 330.4081 130.1108  1.00272458 10781
KUZGTU 1 (RS47S)        
1 57217U 23091AV  26154.88587536  .00013438  00000+0  47073-3 0  9997
2 57217  97.5066 219.2334 0012161 139.0591 221.1564 15.29537269162346
QIANKUN-1               
1 57422U 23103B   26151.67722356  .00022767  18877-5  28012-4 0  9999
2 57422  96.1558 197.6671 0024054 142.5816 217.7151 16.07626689164641
FENGYUN 3F              
1 57490U 23111A   26154.93812994  .00000064  00000+0  50657-4 0  9992
2 57490  98.6837 225.1933 0001554 103.0292 257.1059 14.19936699146989
HJ-2F                   
1 57519U 23116A   26154.97392823  .00008527  00000+0  37446-3 0  9999
2 57519  97.3843 160.4248 0010589  90.0546 270.1904 15.22121259156741
XRISM                   
1 57800U 23137A   26153.27519307  .00005615  00000+0  31044-3 0  9998
2 57800  31.0020  96.1840 0007694 175.1081 184.9634 15.12327778150605
